[{"OBJECT_NAME":"STARLINK-32735","OBJECT_ID":"2025-034R","EPOCH":"2026-03-09T20:15:25.482816","MEAN_MOTION":15.30194059,"ECCENTRICITY":0.00012964,"INCLINATION":53.157,"RA_OF_ASC_NODE":269.9641,"ARG_OF_PERICENTER":88.0091,"MEAN_ANOMALY":272.1058,"EPHEMERIS_TYPE":0,"CLASSIFICATION_TYPE":"U","NORAD_CAT_ID":63044,"ELEMENT_SET_NO":999,"REV_AT_EPOCH":5893,"BSTAR":0.0012728841,"MEAN_MOTION_DOT":0.00037524,"MEAN_MOTION_DDOT":0},{"OBJECT_NAME":"OBJECT R","OBJECT_ID":"2018-111R","EPOCH":"2026-03-09T23:55:12.472032","MEAN_MOTION":15.36792156,"ECCENTRICITY":0.00179753,"INCLINATION":97.014,"RA_OF_ASC_NODE":269.2496,"ARG_OF_PERICENTER":268.8687,"MEAN_ANOMALY":91.0499,"EPHEMERIS_TYPE":0,"CLASSIFICATION_TYPE":"U","NORAD_CAT_ID":43891,"ELEMENT_SET_NO":999,"REV_AT_EPOCH":40119,"BSTAR":0.00024292589,"MEAN_MOTION_DOT":8.703e-5,"MEAN_MOTION_DDOT":0}]
